METEOSAT-10 (MSG-3)     
1 38552U 12035B   21362.28054627  .00000078  00000+0  00000+0 0  9995
2 38552   1.3146  28.9117 0000480 197.1231 341.0301  1.00270843 34491
METOP-B                 
1 38771U 12049A   21362.73337925  .00000040  00000+0  38367-4 0  9999
2 38771  98.6908  60.1014 0001709 135.9254 332.9639 14.21499888481479
FENGYUN 3C              
1 39260U 13052A   21362.61184677  .00000080  00000+0  61396-4 0  9991
2 39260  98.4759  34.1983 0012016  50.9474 309.2768 14.15891875427749
METEOR-M 2              
1 40069U 14037A   21362.60632985 -.00000005  00000+0  16973-4 0  9992
2 40069  98.4446  23.0968 0006867  96.8294 263.3669 14.20694133387601
HIMAWARI-8              
1 40267U 14060A   21362.59384931 -.00000257  00000+0  00000+0 0  9999
2 40267   0.0181 343.4541 0000764 333.7730 134.5013  1.00270292 26400
FENGYUN 2G              
1 40367U 14090A   21362.51376809 -.00000278  00000+0  00000+0 0  9993
2 40367   1.5085  91.0716 0003248 291.4419 358.7051  1.00258919 25632
METEOSAT-11 (MSG-4)     
1 40732U 15034A   21362.31507683  .00000012  00000+0  00000+0 0  9997
2 40732   0.2789 319.9120 0000843 140.2431 109.8581  1.00269622 23666
ELEKTRO-L 2             
1 41105U 15074A   21362.41939785 -.00000097  00000+0  00000+0 0  9993
2 41105   2.5600  90.1496 0002052 141.1419   2.3292  1.00272769 22157
HIMAWARI-9              
1 41836U 16064A   21362.59384931 -.00000256  00000+0  00000+0 0  9997
2 41836   0.0140  46.1044 0000336 268.7154 137.0085  1.00269385 18831
GOES 16                 
1 41866U 16071A   21362.62236971 -.00000229  00000+0  00000+0 0  9992
2 41866   0.0749 246.0370 0000974  78.4793 281.6522  1.00269914 18745
FENGYUN 4A              
1 41882U 16077A   21362.58661019 -.00000310  00000+0  00000+0 0  9997
2 41882   0.0243 333.1675 0005976  76.5179   3.3592  1.00267831 18621
CYGFM05                 
1 41884U 16078A   21362.59169407  .00001788  00000+0  94024-4 0  9998
2 41884  34.9546 185.1064 0015712 358.0892   1.9757 15.15386985278843
CYGFM04                 
1 41885U 16078B   21362.57052775  .00001879  00000+0  97407-4 0  9995
2 41885  34.9479 175.4069 0013894  12.5997 347.5060 15.15894272278875
