[
    {
        "OBJECT_NAME": "METEOSAT-10 (MSG-3)",
        "OBJECT_ID": "2012-035B",
        "EPOCH": "2021-12-28T06:43:59.197728",
        "MEAN_MOTION": 1.00270843,
        "ECCENTRICITY": 4.8e-05,
        "INCLINATION": 1.3146,
        "RA_OF_ASC_NODE": 28.9117,
        "ARG_OF_PERICENTER": 197.1231,
        "MEAN_ANOMALY": 341.0301,
        "EPHEMERIS_TYPE": 0,
        "CLASSIFICATION_TYPE": "U",
        "NORAD_CAT_ID": 38552,
        "ELEMENT_SET_NO": 999,
        "REV_AT_EPOCH": 3449,
        "BSTAR": 0,
        "MEAN_MOTION_DOT": 7.8e-07,
        "MEAN_MOTION_DDOT": 0
    },
    {
        "OBJECT_NAME": "METOP-B",
        "OBJECT_ID": "2012-049A",
        "EPOCH": "2021-12-28T17:36:03.967200",
        "MEAN_MOTION": 14.21499888,
        "ECCENTRICITY": 0.0001709,
        "INCLINATION": 98.6908,
        "RA_OF_ASC_NODE": 60.1014,
        "ARG_OF_PERICENTER": 135.9254,
        "MEAN_ANOMALY": 332.9639,
        "EPHEMERIS_TYPE": 0,
        "CLASSIFICATION_TYPE": "U",
        "NORAD_CAT_ID": 38771,
        "ELEMENT_SET_NO": 999,
        "REV_AT_EPOCH": 48147,
        "BSTAR": 3.8367e-05,
        "MEAN_MOTION_DOT": 4e-07,
        "MEAN_MOTION_DDOT": 0
    },
    {
        "OBJECT_NAME": "FENGYUN 3C",
        "OBJECT_ID": "2013-052A",
        "EPOCH": "2021-12-28T14:41:03.560928",
        "MEAN_MOTION": 14.15891875,
        "ECCENTRICITY": 0.0012016,
        "INCLINATION": 98.4759,
        "RA_OF_ASC_NODE": 34.1983,
        "ARG_OF_PERICENTER": 50.9474,
        "MEAN_ANOMALY": 309.2768,
        "EPHEMERIS_TYPE": 0,
        "CLASSIFICATION_TYPE": "U",
        "NORAD_CAT_ID": 39260,
        "ELEMENT_SET_NO": 999,
        "REV_AT_EPOCH": 42774,
        "BSTAR": 6.1396e-05,
        "MEAN_MOTION_DOT": 8e-07,
        "MEAN_MOTION_DDOT": 0
    },
    {
        "OBJECT_NAME": "METEOR-M 2",
        "OBJECT_ID": "2014-037A",
        "EPOCH": "2021-12-28T14:33:06.899040",
        "MEAN_MOTION": 14.20694133,
        "ECCENTRICITY": 0.0006867,
        "INCLINATION": 98.4446,
        "RA_OF_ASC_NODE": 23.0968,
        "ARG_OF_PERICENTER": 96.8294,
        "MEAN_ANOMALY": 263.3669,
        "EPHEMERIS_TYPE": 0,
        "CLASSIFICATION_TYPE": "U",
        "NORAD_CAT_ID": 40069,
        "ELEMENT_SET_NO": 999,
        "REV_AT_EPOCH": 38760,
        "BSTAR": 1.6973e-05,
        "MEAN_MOTION_DOT": -5e-08,
        "MEAN_MOTION_DDOT": 0
    },
    {
        "OBJECT_NAME": "HIMAWARI-8",
        "OBJECT_ID": "2014-060A",
        "EPOCH": "2021-12-28T14:15:08.580384",
        "MEAN_MOTION": 1.00270292,
        "ECCENTRICITY": 7.64e-05,
        "INCLINATION": 0.0181,
        "RA_OF_ASC_NODE": 343.4541,
        "ARG_OF_PERICENTER": 333.773,
        "MEAN_ANOMALY": 134.5013,
        "EPHEMERIS_TYPE": 0,
        "CLASSIFICATION_TYPE": "U",
        "NORAD_CAT_ID": 40267,
        "ELEMENT_SET_NO": 999,
        "REV_AT_EPOCH": 2640,
        "BSTAR": 0,
        "MEAN_MOTION_DOT": -2.57e-06,
        "MEAN_MOTION_DDOT": 0
    },
    {
        "OBJECT_NAME": "FENGYUN 2G",
        "OBJECT_ID": "2014-090A",
        "EPOCH": "2021-12-28T12:19:49.562976",
        "MEAN_MOTION": 1.00258919,
        "ECCENTRICITY": 0.0003248,
        "INCLINATION": 1.5085,
        "RA_OF_ASC_NODE": 91.0716,
        "ARG_OF_PERICENTER": 291.4419,
        "MEAN_ANOMALY": 358.7051,
        "EPHEMERIS_TYPE": 0,
        "CLASSIFICATION_TYPE": "U",
        "NORAD_CAT_ID": 40367,
        "ELEMENT_SET_NO": 999,
        "REV_AT_EPOCH": 2563,
        "BSTAR": 0,
        "MEAN_MOTION_DOT": -2.78e-06,
        "MEAN_MOTION_DDOT": 0
    },
    {
        "OBJECT_NAME": "METEOSAT-11 (MSG-4)",
        "OBJECT_ID": "2015-034A",
        "EPOCH": "2021-12-28T07:33:42.638112",
        "MEAN_MOTION": 1.00269622,
        "ECCENTRICITY": 8.43e-05,
        "INCLINATION": 0.2789,
        "RA_OF_ASC_NODE": 319.912,
        "ARG_OF_PERICENTER": 140.2431,
        "MEAN_ANOMALY": 109.8581,
        "EPHEMERIS_TYPE": 0,
        "CLASSIFICATION_TYPE": "U",
        "NORAD_CAT_ID": 40732,
        "ELEMENT_SET_NO": 999,
        "REV_AT_EPOCH": 2366,
        "BSTAR": 0,
        "MEAN_MOTION_DOT": 1.2e-07,
        "MEAN_MOTION_DDOT": 0
    },
    {
        "OBJECT_NAME": "ELEKTRO-L 2",
        "OBJECT_ID": "2015-074A",
        "EPOCH": "2021-12-28T10:03:55.974240",
        "MEAN_MOTION": 1.00272769,
        "ECCENTRICITY": 0.0002052,
        "INCLINATION": 2.56,
        "RA_OF_ASC_NODE": 90.1496,
        "ARG_OF_PERICENTER": 141.1419,
        "MEAN_ANOMALY": 2.3292,
        "EPHEMERIS_TYPE": 0,
        "CLASSIFICATION_TYPE": "U",
        "NORAD_CAT_ID": 41105,
        "ELEMENT_SET_NO": 999,
        "REV_AT_EPOCH": 2215,
        "BSTAR": 0,
        "MEAN_MOTION_DOT": -9.7e-07,
        "MEAN_MOTION_DDOT": 0
    },
    {
        "OBJECT_NAME": "HIMAWARI-9",
        "OBJECT_ID": "2016-064A",
        "EPOCH": "2021-12-28T14:15:08.580384",
        "MEAN_MOTION": 1.00269385,
        "ECCENTRICITY": 3.36e-05,
        "INCLINATION": 0.014,
        "RA_OF_ASC_NODE": 46.1044,
        "ARG_OF_PERICENTER": 268.7154,
        "MEAN_ANOMALY": 137.0085,
        "EPHEMERIS_TYPE": 0,
        "CLASSIFICATION_TYPE": "U",
        "NORAD_CAT_ID": 41836,
        "ELEMENT_SET_NO": 999,
        "REV_AT_EPOCH": 1883,
        "BSTAR": 0,
        "MEAN_MOTION_DOT": -2.56e-06,
        "MEAN_MOTION_DDOT": 0
    },
    {
        "OBJECT_NAME": "GOES 16",
        "OBJECT_ID": "2016-071A",
        "EPOCH": "2021-12-28T14:56:12.742944",
        "MEAN_MOTION": 1.00269914,
        "ECCENTRICITY": 9.74e-05,
        "INCLINATION": 0.0749,
        "RA_OF_ASC_NODE": 246.037,
        "ARG_OF_PERICENTER": 78.4793,
        "MEAN_ANOMALY": 281.6522,
        "EPHEMERIS_TYPE": 0,
        "CLASSIFICATION_TYPE": "U",
        "NORAD_CAT_ID": 41866,
        "ELEMENT_SET_NO": 999,
        "REV_AT_EPOCH": 1874,
        "BSTAR": 0,
        "MEAN_MOTION_DOT": -2.29e-06,
        "MEAN_MOTION_DDOT": 0
    },
    {
        "OBJECT_NAME": "FENGYUN 4A",
        "OBJECT_ID": "2016-077A",
        "EPOCH": "2021-12-28T14:04:43.120416",
        "MEAN_MOTION": 1.00267831,
        "ECCENTRICITY": 0.0005976,
        "INCLINATION": 0.0243,
        "RA_OF_ASC_NODE": 333.1675,
        "ARG_OF_PERICENTER": 76.5179,
        "MEAN_ANOMALY": 3.3592,
        "EPHEMERIS_TYPE": 0,
        "CLASSIFICATION_TYPE": "U",
        "NORAD_CAT_ID": 41882,
        "ELEMENT_SET_NO": 999,
        "REV_AT_EPOCH": 1862,
        "BSTAR": 0,
        "MEAN_MOTION_DOT": -3.1e-06,
        "MEAN_MOTION_DDOT": 0
    },
    {
        "OBJECT_NAME": "CYGFM05",
        "OBJECT_ID": "2016-078A",
        "EPOCH": "2021-12-28T14:12:02.367648",
        "MEAN_MOTION": 15.15386985,
        "ECCENTRICITY": 0.0015712,
        "INCLINATION": 34.9546,
        "RA_OF_ASC_NODE": 185.1064,
        "ARG_OF_PERICENTER": 358.0892,
        "MEAN_ANOMALY": 1.9757,
        "EPHEMERIS_TYPE": 0,
        "CLASSIFICATION_TYPE": "U",
        "NORAD_CAT_ID": 41884,
        "ELEMENT_SET_NO": 999,
        "REV_AT_EPOCH": 27884,
        "BSTAR": 9.4024e-05,
        "MEAN_MOTION_DOT": 1.788e-05,
        "MEAN_MOTION_DDOT": 0
    },
    {
        "OBJECT_NAME": "CYGFM04",
        "OBJECT_ID": "2016-078B",
        "EPOCH": "2021-12-28T13:41:33.597600",
        "MEAN_MOTION": 15.15894272,
        "ECCENTRICITY": 0.0013894,
        "INCLINATION": 34.9479,
        "RA_OF_ASC_NODE": 175.4069,
        "ARG_OF_PERICENTER": 12.5997,
        "MEAN_ANOMALY": 347.506,
        "EPHEMERIS_TYPE": 0,
        "CLASSIFICATION_TYPE": "U",
        "NORAD_CAT_ID": 41885,
        "ELEMENT_SET_NO": 999,
        "REV_AT_EPOCH": 27887,
        "BSTAR": 9.7407e-05,
        "MEAN_MOTION_DOT": 1.879e-05,
        "MEAN_MOTION_DDOT": 0
    }
]